{
  "type": "FeatureCollection",
  "features": [
    {
      "type": "Feature",
      "properties": {
        "norad_id": 30665,
        "name": "FENGYUN 1C DEB",
        "group": "fengyun-1c-debris",
        "lat": 42.832883124117366,
        "lon": -44.921457861703644,
        "alt_km": 887.0612532551095,
        "timestamp": "2025-12-17T23:38:07.131937+00:00",
        "meta_object_name": "FENGYUN 1C DEB",
        "meta_object_id": "1999-025APX",
        "meta_epoch": "2025-12-17T10:32:48.431616",
        "meta_mean_motion": 14.12367623,
        "meta_eccentricity": 0.00676105,
        "meta_inclination": 99.2081,
        "meta_ra_of_asc_node": 323.1676,
        "meta_arg_of_pericenter": 189.0526,
        "meta_mean_anomaly": 323.669,
        "meta_ephemeris_type": 0,
        "meta_classification_type": "U",
        "meta_norad_cat_id": 30665,
        "meta_element_set_no": 999,
        "meta_rev_at_epoch": 96036,
        "meta_bstar": 0.0012053137,
        "meta_mean_motion_dot": 2.223e-05,
        "meta_mean_motion_ddot": 0,
        "tle_line1": "1 30665U 99025APX 25351.43944944  .00002223  00000+0  12053-2 0  9993",
        "tle_line2": "2 30665  99.2081 323.1676 0067610 189.0526 323.6690 14.12367623960368"
      },
      "geometry": {
        "type": "Point",
        "coordinates": [
          -44.921457861703644,
          42.832883124117366
        ]
      }
    },
    {
      "type": "Feature",
      "properties": {
        "norad_id": 30666,
        "name": "FENGYUN 1C DEB",
        "group": "fengyun-1c-debris",
        "lat": 28.31652606640793,
        "lon": -29.363399917332952,
        "alt_km": 891.7400701656143,
        "timestamp": "2025-12-17T23:38:07.131947+00:00",
        "meta_object_name": "FENGYUN 1C DEB",
        "meta_object_id": "1999-025APY",
        "meta_epoch": "2025-12-17T12:05:03.511104",
        "meta_mean_motion": 14.02558744,
        "meta_eccentricity": 0.00613192,
        "meta_inclination": 98.822,
        "meta_ra_of_asc_node": 334.9705,
        "meta_arg_of_pericenter": 130.9948,
        "meta_mean_anomaly": 349.678,
        "meta_ephemeris_type": 0,
        "meta_classification_type": "U",
        "meta_norad_cat_id": 30666,
        "meta_element_set_no": 999,
        "meta_rev_at_epoch": 96177,
        "meta_bstar": 0.00022678484,
        "meta_mean_motion_dot": 3.13e-06,
        "meta_mean_motion_ddot": 0,
        "tle_line1": "1 30666U 99025APY 25351.50351286  .00000313  00000+0  22678-3 0  9996",
        "tle_line2": "2 30666  98.8220 334.9705 0061319 130.9948 349.6780 14.02558744961774"
      },
      "geometry": {
        "type": "Point",
        "coordinates": [
          -29.363399917332952,
          28.31652606640793
        ]
      }
    },
    {
      "type": "Feature",
      "properties": {
        "norad_id": 30668,
        "name": "FENGYUN 1C DEB",
        "group": "fengyun-1c-debris",
        "lat": 44.583702934233976,
        "lon": -105.74190852199094,
        "alt_km": 853.6097279998121,
        "timestamp": "2025-12-17T23:38:07.131957+00:00",
        "meta_object_name": "FENGYUN 1C DEB",
        "meta_object_id": "1999-025AQA",
        "meta_epoch": "2025-12-17T04:25:10.142688",
        "meta_mean_motion": 14.12356971,
        "meta_eccentricity": 0.00791626,
        "meta_inclination": 99.13,
        "meta_ra_of_asc_node": 64.3233,
        "meta_arg_of_pericenter": 233.4912,
        "meta_mean_anomaly": 153.3215,
        "meta_ephemeris_type": 0,
        "meta_classification_type": "U",
        "meta_norad_cat_id": 30668,
        "meta_element_set_no": 999,
        "meta_rev_at_epoch": 96118,
        "meta_bstar": 0.001315351,
        "meta_mean_motion_dot": 2.45e-05,
        "meta_mean_motion_ddot": 0,
        "tle_line1": "1 30668U 99025AQA 25351.18414517  .00002450  00000+0  13154-2 0  9991",
        "tle_line2": "2 30668  99.1300  64.3233 0079162 233.4912 153.3215 14.12356971961181"
      },
      "geometry": {
        "type": "Point",
        "coordinates": [
          -105.74190852199094,
          44.583702934233976
        ]
      }
    },
    {
      "type": "Feature",
      "properties": {
        "norad_id": 30669,
        "name": "FENGYUN 1C DEB",
        "group": "fengyun-1c-debris",
        "lat": 9.21079537605225,
        "lon": -73.02689329673156,
        "alt_km": 961.5664714097065,
        "timestamp": "2025-12-17T23:38:07.131970+00:00",
        "meta_object_name": "FENGYUN 1C DEB",
        "meta_object_id": "1999-025AQB",
        "meta_epoch": "2025-12-15T18:39:40.226688",
        "meta_mean_motion": 14.02736421,
        "meta_eccentricity": 0.01178858,
        "meta_inclination": 98.6336,
        "meta_ra_of_asc_node": 286.2916,
        "meta_arg_of_pericenter": 167.9872,
        "meta_mean_anomaly": 221.9257,
        "meta_ephemeris_type": 0,
        "meta_classification_type": "U",
        "meta_norad_cat_id": 30669,
        "meta_element_set_no": 999,
        "meta_rev_at_epoch": 95496,
        "meta_bstar": 0.0010301136,
        "meta_mean_motion_dot": 1.652e-05,
        "meta_mean_motion_ddot": 0,
        "tle_line1": "1 30669U 99025AQB 25349.77754892  .00001652  00000+0  10301-2 0  9991",
        "tle_line2": "2 30669  98.6336 286.2916 0117885 167.9872 221.9257 14.02736421954966"
      },
      "geometry": {
        "type": "Point",
        "coordinates": [
          -73.02689329673156,
          9.21079537605225
        ]
      }
    },
    {
      "type": "Feature",
      "properties": {
        "norad_id": 30670,
        "name": "FENGYUN 1C DEB",
        "group": "fengyun-1c-debris",
        "lat": -0.9070949358908766,
        "lon": -143.84295110910224,
        "alt_km": 859.310279324458,
        "timestamp": "2025-12-17T23:38:07.131981+00:00",
        "meta_object_name": "FENGYUN 1C DEB",
        "meta_object_id": "1999-025AQC",
        "meta_epoch": "2025-12-17T02:33:33.378048",
        "meta_mean_motion": 14.15819017,
        "meta_eccentricity": 0.00397842,
        "meta_inclination": 98.7104,
        "meta_ra_of_asc_node": 35.4378,
        "meta_arg_of_pericenter": 57.4311,
        "meta_mean_anomaly": 329.5315,
        "meta_ephemeris_type": 0,
        "meta_classification_type": "U",
        "meta_norad_cat_id": 30670,
        "meta_element_set_no": 999,
        "meta_rev_at_epoch": 97214,
        "meta_bstar": 9.361094e-05,
        "meta_mean_motion_dot": 1.42e-06,
        "meta_mean_motion_ddot": 0,
        "tle_line1": "1 30670U 99025AQC 25351.10663632  .00000142  00000+0  93611-4 0  9994",
        "tle_line2": "2 30670  98.7104  35.4378 0039784  57.4311 329.5315 14.15819017972147"
      },
      "geometry": {
        "type": "Point",
        "coordinates": [
          -143.84295110910224,
          -0.9070949358908766
        ]
      }
    },
    {
      "type": "Feature",
      "properties": {
        "norad_id": 30671,
        "name": "FENGYUN 1C DEB",
        "group": "fengyun-1c-debris",
        "lat": 56.909611468057356,
        "lon": -108.79963736829232,
        "alt_km": 923.3933237726178,
        "timestamp": "2025-12-17T23:38:07.131991+00:00",
        "meta_object_name": "FENGYUN 1C DEB",
        "meta_object_id": "1999-025AQD",
        "meta_epoch": "2025-12-17T11:04:57.036864",
        "meta_mean_motion": 13.95475762,
        "meta_eccentricity": 0.01258502,
        "meta_inclination": 99.2523,
        "meta_ra_of_asc_node": 56.1898,
        "meta_arg_of_pericenter": 20.3538,
        "meta_mean_anomaly": 353.9446,
        "meta_ephemeris_type": 0,
        "meta_classification_type": "U",
        "meta_norad_cat_id": 30671,
        "meta_element_set_no": 999,
        "meta_rev_at_epoch": 95261,
        "meta_bstar": 0.0010782417,
        "meta_mean_motion_dot": 1.519e-05,
        "meta_mean_motion_ddot": 0,
        "tle_line1": "1 30671U 99025AQD 25351.46177126  .00001519  00000+0  10782-2 0  9997",
        "tle_line2": "2 30671  99.2523  56.1898 0125850  20.3538 353.9446 13.95475762952614"
      },
      "geometry": {
        "type": "Point",
        "coordinates": [
          -108.79963736829232,
          56.909611468057356
        ]
      }
    },
    {
      "type": "Feature",
      "properties": {
        "norad_id": 30673,
        "name": "FENGYUN 1C DEB",
        "group": "fengyun-1c-debris",
        "lat": 81.03994253939761,
        "lon": -43.830273547142575,
        "alt_km": 844.4989228351878,
        "timestamp": "2025-12-17T23:38:07.132001+00:00",
        "meta_object_name": "FENGYUN 1C DEB",
        "meta_object_id": "1999-025AQF",
        "meta_epoch": "2025-12-17T09:36:23.830848",
        "meta_mean_motion": 14.03457437,
        "meta_eccentricity": 0.00527737,
        "meta_inclination": 98.9193,
        "meta_ra_of_asc_node": 40.4709,
        "meta_arg_of_pericenter": 129.7647,
        "meta_mean_anomaly": 248.1451,
        "meta_ephemeris_type": 0,
        "meta_classification_type": "U",
        "meta_norad_cat_id": 30673,
        "meta_element_set_no": 999,
        "meta_rev_at_epoch": 96597,
        "meta_bstar": -1.0521399e-05,
        "meta_mean_motion_dot": -6e-07,
        "meta_mean_motion_ddot": 0,
        "tle_line1": "1 30673U 99025AQF 25351.40027582 -.00000060  00000+0 -10521-4 0  9998",
        "tle_line2": "2 30673  98.9193  40.4709 0052773 129.7647 248.1451 14.03457437965973"
      },
      "geometry": {
        "type": "Point",
        "coordinates": [
          -43.830273547142575,
          81.03994253939761
        ]
      }
    }
  ]
}